TIANWANG 1C (TW-1C)     
1 40926U 15051B   17221.17751567  .00007555  00000-0  17093-3 0  9990
2 40926  97.2258 260.3382 0010757 346.1710  86.4364 15.43368016105095
TIANWANG 1B (TW-1B)     
1 40927U 15051C   17221.15699413  .00007570  00000-0  17777-3 0  9996
2 40927  97.2346 260.3124 0011265 357.4550  80.1182 15.42249007105030
TIANWANG 1A (TW-1A)     
1 40928U 15051D   17221.23329270  .00003838  00000-0  10997-3 0  9997
2 40928  97.2234 256.0941 0012930  15.8210  46.4375 15.36433363104844
LAPAN-A2 (IO-86)        
1 40931U 15052B   17220.25542276  .00000706  00000-0  92338-5 0  9998
2 40931   5.9978 221.4632 0013784 262.7774  97.0865 14.76535610100672
LQSAT                   
1 40958U 15057A   17221.23411879  .00000036  00000-0  13471-4 0  9991
2 40958  97.9757 295.6205 0016704 255.5364 104.4029 14.72975924 98938
CHUBUSAT-2              
1 41338U 16012B   17221.13071661  .00000320  00000-0  18352-4 0  9995
2 41338  31.0031 136.0051 0014093 223.7141 136.2378 14.99768798 80941
CHUBUSAT-3              
1 41339U 16012C   17221.11826434  .00000349  00000-0  20556-4 0  9990
2 41339  31.0102 135.1434 0013945 230.1069 129.8344 14.99972304 80921
OUFTI-1                 
1 41458U 16025C   17221.16339536  .00002071  00000-0  11304-3 0  9997
2 41458  98.1832 261.7773 0175741 112.3741 249.6206 15.03339920 70542
E-ST@R-II               
1 41459U 16025D   17221.05700507  .00003273  00000-0  17697-3 0  9992
2 41459  98.1818 261.5993 0175501 113.2827 248.6983 15.03173342 70510
AAUSAT 4                
1 41460U 16025E   17221.15542811  .00002787  00000-0  15088-3 0  9998
2 41460  98.1756 261.8429 0168972 110.8241 251.1173 15.04112268 70552
NUSAT 1 (LO-87)         
1 41557U 16033B   17220.95805029  .00001307  00000-0  51763-4 0  9992
2 41557  97.4614 300.4744 0014398 174.8402 185.2988 15.27183625 66483
BEESAT-4                
1 41619U 16040W   17220.89379349  .00001316  00000-0  62634-4 0  9992
2 41619  97.4585 282.7658 0010593 239.7775 120.2412 15.20899520 50601
PRATHAM                 
1 41783U 16059A   17221.17144150  .00000050  00000-0  19188-4 0  9996
2 41783  98.1630 281.9855 0033471 357.1049   2.9954 14.62848594 46344
ALSAT 1N                
1 41789U 16059G   17221.11612789  .00000064  00000-0  21383-4 0  9999
2 41789  98.1641 282.5341 0028361 351.6775   8.3961 14.64062367 46353
NAYIF-1 (EO-88)         
1 42017U 17008BX  17221.12554947  .00001507  00000-0  66832-4 0  9992
2 42017  97.4913 282.4731 0007653  47.0455 313.1422 15.23138886 26540
LILACSAT-1              
1 42725U 98067ME  17221.28076735  .00008335  00000-0  12380-3 0  9997
2 42725  51.6402 132.9505 0007402 141.5050 218.6471 15.56104737 11767
MAX VALIER SAT          
1 42778U 17036P   17221.26332576  .00000998  00000-0  48843-4 0  9999
2 42778  97.4478 280.4687 0014641  83.3554 276.9347 15.20422448  7094
